ORBCOMM FM103 [+]       
1 40091U 14040F   23276.87511086  .00001407  00000+0  35479-3 0  9991
2 40091  47.0060  71.2423 0002295 292.8017  67.2625 14.55927506473353
ORBCOMM FM114 [+]       
1 41179U 15081A   23276.22436146  .00001855  00000+0  45540-3 0  9994
2 41179  47.0034 343.6681 0001722 325.6553  34.4220 14.55966845413628
ORBCOMM FM119 [-]       
1 41180U 15081B   23276.87767887  .00001463  00000+0  36751-3 0  9995
2 41180  47.0003 249.7868 0000734  46.3094 313.7852 14.55922993414977
ORBCOMM FM105 [-]       
1 41181U 15081C   23276.81988077  .00000719  00000+0  25406-3 0  9994
2 41181  47.0013 197.1373 0001568  30.4255 329.6716 14.44032942410879
ORBCOMM FM110 [+]       
1 41182U 15081D   23276.61311617  .00001913  00000+0  46847-3 0  9992
2 41182  47.0021 341.2667 0002632 225.0916 134.9755 14.55958745413554
ORBCOMM FM118 [+]       
1 41183U 15081E   23276.65912955  .00001942  00000+0  47494-3 0  9990
2 41183  47.0045 341.3131 0002810 221.1416 138.9257 14.55966652413667
ORBCOMM FM112 [+]       
1 41184U 15081F   23276.65008349  .00001302  00000+0  33120-3 0  9995
2 41184  46.9985 250.1198 0001246  12.0326 348.0588 14.55935010414888
ORBCOMM FM113 [+]       
1 41185U 15081G   23276.90060219  .00001336  00000+0  33866-3 0  9992
2 41185  47.0004 249.1578 0000655  13.9780 346.1123 14.55930501414907
